SL-14 R/B               
1 21423U 91042B   26042.01729998  .00000417  00000+0  49824-4 0  9999
2 21423  82.4898 245.1994 0016393 333.5427  26.4948 14.81803359849125
ERS-1                   
1 21574U 91050A   26042.07444397  .00000382  00000+0  13695-3 0  9995
2 21574  98.7895  59.6397 0030911 281.6553  78.1165 14.39427474811902
ARIANE 40 R/B           
1 21610U 91050F   26041.63390617  .00000327  00000+0  11030-3 0  9992
2 21610  98.2072  94.8781 0003881 140.8090 219.3382 14.42873345815091
INTERCOSMOS 25          
1 21819U 91086A   26042.23799503  .00001599  00000+0  31039-3 0  9999
2 21819  82.6086 325.9924 1486835 173.9171 188.2460 12.11926205493487
SL-8 R/B                
1 21876U 92008B   26042.12825368  .00000029  00000+0  13795-4 0  9991
2 21876  82.9260 287.5387 0033935 207.0655 317.3989 13.75969666705764
SL-8 R/B                
1 21938U 92020B   26041.86172153  .00000129  00000+0  11823-3 0  9991
2 21938  82.9333 173.6742 0029171  15.3314  96.8208 13.75545664697449
USA 81                  
1 21949U 92023A   26042.25249458  .00000227  00000+0  76784-4 0  9990
2 21949  85.0120 146.6854 0002681 101.4504 258.6990 14.32358373 91007
COSMOS 2219             
1 22219U 92076A   26042.06481861 -.00000021  00000+0  13765-4 0  9997
2 22219  71.0580  73.7299 0020220 243.4460 116.4590 14.14076532714613
SL-16 R/B               
1 22220U 92076B   26041.94827758 -.00000058  00000+0 -49763-5 0  9993
2 22220  70.9978 244.7044 0011395 144.3993 322.8524 14.16856001718045
COSMOS 2221             
1 22236U 92080A   26042.08592609  .00002072  00000+0  18182-3 0  9990
2 22236  82.5053 304.5604 0012824 284.7458  75.2343 14.96095550776814
SL-16 R/B               
1 22285U 92093B   26041.53147301  .00000023  00000+0  35976-4 0  9997
2 22285  71.0200  61.2795 0005191 322.4617  37.6143 14.15441096709311
COSMOS 2228             
1 22286U 92094A   26042.25336296  .00001826  00000+0  15569-3 0  9999
2 22286  82.5155 262.6261 0018909  34.8033 325.4422 14.97067291772106
